0 METEOR 2-8 DEB
1 36860U 82025AX  13284.27615922  .00002411  00000-0  16376-2 0   671
2 36860 082.5270 123.5951 0016181 216.9209 153.7648 13.99659219483857
0 METEOR 2-8 DEB
1 36860U 82025AX  13295.21133478  .00001498  00000-0  10141-2 0   687
2 36860 082.5270 114.6585 0016179 185.4629 172.4165 13.99645044485387
